NORAD_CAT_ID,OBJECT_NAME,OBJECT_TYPE,EPOCH,MEAN_MOTION,ECCENTRICITY,INCLINATION,RA_OF_ASC_NODE,ARG_OF_PERICENTER,MEAN_ANOMALY,BSTAR,MEAN_MOTION_DOT,MEAN_MOTION_DDOT,TLE_LINE0,TLE_LINE1,TLE_LINE2,SEMIMAJOR_AXIS,PERIOD,APOGEE,PERIGEE,DECAYED
53244.0,STARLINK-4125,PAYLOAD,2023-12-11 01:13:56,15.08845061,0.0001312,53.2185,283.7476,93.4889,266.6253,-1.646e-05,-5.5e-06,0.0,0 STARLINK-4125,1 53244U 22086C   23345.05135187 -.00000550  00000-0 -16460-4 0  9996,2 53244  53.2185 283.7476 0001312  93.4889 266.6253 15.08845061 77001,6917.865,95.437,540.638,538.822,0.0
53244.0,STARLINK-4125,PAYLOAD,2023-12-12 02:40:06,15.08840704,0.0001379,53.2185,278.9884,95.9926,264.1223,8.3452e-05,1.04e-05,0.0,0 STARLINK-4125,1 53244U 22086C   23346.11119210  .00001040  00000-0  83452-4 0  9991,2 53244  53.2185 278.9884 0001379  95.9926 264.1223 15.08840704 77168,6917.878,95.438,540.697,538.789,0.0
53244.0,STARLINK-4125,PAYLOAD,2023-12-13 00:55:31,15.08839488,0.0001488,53.2184,274.8265,104.4825,255.6332,5.7751e-05,6.31e-06,0.0,0 STARLINK-4125,1 53244U 22086C   23347.03855536  .00000631  00000-0  57751-4 0  9999,2 53244  53.2184 274.8265 0001488 104.4825 255.6332 15.08839488 77804,6917.882,95.438,540.776,538.718,0.0
53244.0,STARLINK-4125,PAYLOAD,2023-12-14 02:21:42,15.08803003,0.0001703,53.2183,270.0657,74.3257,285.7923,0.00053601,8.244e-05,0.0,0 STARLINK-4125,1 53244U 22086C   23348.09840654  .00008244  00000-0  53601-3 0  9998,2 53244  53.2183 270.0657 0001703  74.3257 285.7923 15.08803003 77466,6917.993,95.44,541.037,538.68,0.0
53244.0,STARLINK-4125,PAYLOAD,2023-12-15 02:12:28,15.08840057,0.0001797,53.2184,265.6111,65.7046,294.4133,8.7467e-05,1.104e-05,0.0,0 STARLINK-4125,1 53244U 22086C   23349.09200074  .00001104  00000-0  87467-4 0  9991,2 53244  53.2184 265.6111 0001797  65.7046 294.4133 15.08840057 77612,6917.88,95.438,540.988,538.502,0.0
53244.0,STARLINK-4125,PAYLOAD,2023-12-15 22:52:29,15.08839916,0.0001401,53.2175,261.7437,90.8627,269.2525,4.1458e-06,-2.22e-06,0.0,0 STARLINK-4125,1 53244U 22086C   23349.95312356 -.00000222  00000-0  41458-5 0  9995,2 53244  53.2175 261.7437 0001401  90.8627 269.2525 15.08839916 78243,6917.881,95.438,540.715,538.776,0.0
53244.0,STARLINK-4125,PAYLOAD,2023-12-16 02:03:16,15.08840069,0.0001548,53.218,261.1477,75.7629,284.3535,6.0366e-05,6.73e-06,0.0,0 STARLINK-4125,1 53244U 22086C   23350.08560213  .00000673  00000-0  60366-4 0  9995,2 53244  53.2180 261.1477 0001548  75.7629 284.3535 15.08840069 78265,6917.88,95.438,540.816,538.674,0.0
53244.0,STARLINK-4125,PAYLOAD,2023-12-17 00:18:39,15.08850743,0.0001505,53.2176,256.9854,80.1791,279.9371,8.4568e-05,1.059e-05,0.0,0 STARLINK-4125,1 53244U 22086C   23351.01295443  .00001059  00000-0  84568-4 0  9998,2 53244  53.2176 256.9854 0001505  80.1791 279.9371 15.08850743 77902,6917.848,95.437,540.754,538.671,0.0
53244.0,STARLINK-4125,PAYLOAD,2023-12-17 22:34:03,15.08846026,0.0001674,53.2184,252.8227,97.3959,262.7224,0.00011982,1.62e-05,0.0,0 STARLINK-4125,1 53244U 22086C   23351.94031419  .00001620  00000-0  11982-3 0  9994,2 53244  53.2184 252.8227 0001674  97.3959 262.7224 15.08846026 78540,6917.862,95.437,540.885,538.569,0.0
53244.0,STARLINK-4125,PAYLOAD,2023-12-18 00:09:26,15.08850412,0.0001613,53.2186,252.5233,82.8653,277.2522,0.00011684,1.572e-05,0.0,0 STARLINK-4125,1 53244U 22086C   23352.00655252  .00001572  00000-0  11684-3 0  9994,2 53244  53.2186 252.5233 0001613  82.8653 277.2522 15.08850412 78051,6917.849,95.437,540.829,538.598,0.0
53244.0,STARLINK-4125,PAYLOAD,2023-12-18 22:24:50,15.08839394,0.0001645,53.2176,248.3635,101.6862,258.4314,1.8612e-05,8e-08,0.0,0 STARLINK-4125,1 53244U 22086C   23352.93392057  .00000008  00000-0  18612-4 0  9999,2 53244  53.2176 248.3635 0001645 101.6862 258.4314 15.08839394 78692,6917.882,95.438,540.885,538.609,0.0
53244.0,STARLINK-4125,PAYLOAD,2023-12-19 23:51:01,15.08837187,0.0001479,53.2178,243.6102,106.9129,253.2025,-9.9162e-05,-1.866e-05,0.0,0 STARLINK-4125,1 53244U 22086C   23353.99376893 -.00001866  00000-0 -99162-4 0  9990,2 53244  53.2178 243.6102 0001479 106.9129 253.2025 15.08837187 78353,6917.889,95.438,540.777,538.731,0.0
53244.0,STARLINK-4125,PAYLOAD,2023-12-20 20:31:02,15.08842761,0.0001212,53.217,239.7427,88.6888,271.4243,6.9965e-05,8.26e-06,0.0,0 STARLINK-4125,1 53244U 22086C   23354.85488490  .00000826  00000-0  69965-4 0  9994,2 53244  53.2170 239.7427 0001212  88.6888 271.4243 15.08842761 78486,6917.872,95.437,540.575,538.899,0.0
53244.0,STARLINK-4125,PAYLOAD,2023-12-20 22:06:25,15.08838437,0.0001263,53.2165,239.4423,91.3421,268.7716,0.00021992,3.214e-05,0.0,0 STARLINK-4125,1 53244U 22086C   23354.92112365  .00003214  00000-0  21992-3 0  9998,2 53244  53.2165 239.4423 0001263  91.3421 268.7716 15.08838437 78998,6917.885,95.438,540.624,538.876,0.0
53244.0,STARLINK-4125,PAYLOAD,2023-12-20 23:41:47,15.08850862,0.0001456,53.2165,239.1472,105.2277,254.8876,0.00034363,5.187e-05,0.0,0 STARLINK-4125,1 53244U 22086C   23354.98736105  .00005187  00000-0  34363-3 0  9995,2 53244  53.2165 239.1472 0001456 105.2277 254.8876 15.08850862 78503,6917.847,95.437,540.719,538.705,0.0
53244.0,STARLINK-4125,PAYLOAD,2023-12-21 21:57:12,15.08851147,0.0001948,53.2172,234.9762,138.6755,221.4385,-0.00011761,-2.16e-05,0.0,0 STARLINK-4125,1 53244U 22086C   23355.91472534 -.00002160  00000-0 -11761-3 0  9999,2 53244  53.2172 234.9762 0001948 138.6755 221.4385 15.08851147 79146,6917.846,95.437,541.059,538.364,0.0
53244.0,STARLINK-4125,PAYLOAD,2023-12-21 23:32:36,15.08836786,0.0001327,53.2168,234.6874,87.3677,272.7467,8.1569e-05,1.01e-05,0.0,0 STARLINK-4125,1 53244U 22086C   23355.98097226  .00001010  00000-0  81569-4 0  9992,2 53244  53.2168 234.6874 0001327  87.3677 272.7467 15.08836786 78653,6917.89,95.438,540.673,538.837,0.0
53244.0,STARLINK-4125,PAYLOAD,2023-12-22 20:12:36,15.08849733,0.0001256,53.2162,230.8194,96.9691,263.1444,-8.9895e-06,-4.31e-06,0.0,0 STARLINK-4125,1 53244U 22086C   23356.84208688 -.00000431  00000-0 -89895-5 0  9993,2 53244  53.2162 230.8194 0001256  96.9691 263.1444 15.08849733 78782,6917.851,95.437,540.585,538.847,0.0
53244.0,STARLINK-4125,PAYLOAD,2023-12-22 21:47:59,15.08846881,0.0001388,53.2158,230.5233,93.7707,266.3444,-2.0277e-05,-6.11e-06,0.0,0 STARLINK-4125,1 53244U 22086C   23356.90832478 -.00000611  00000-0 -20277-4 0  9998,2 53244  53.2158 230.5233 0001388  93.7707 266.3444 15.08846881 79290,6917.859,95.437,540.685,538.764,0.0
53244.0,STARLINK-4125,PAYLOAD,2023-12-22 23:23:22,15.08850914,0.0001404,53.2158,230.2256,90.8816,269.2337,5.1704e-05,5.35e-06,0.0,0 STARLINK-4125,1 53244U 22086C   23356.97456275  .00000535  00000-0  51704-4 0  9994,2 53244  53.2158 230.2256 0001404  90.8816 269.2337 15.08850914 79307,6917.847,95.437,540.683,538.741,0.0
53244.0,STARLINK-4125,PAYLOAD,2023-12-23 20:03:23,15.08836369,0.0001482,53.2151,226.359,84.0528,276.0633,6.4472e-05,7.38e-06,0.0,0 STARLINK-4125,1 53244U 22086C   23357.83569284  .00000738  00000-0  64472-4 0  9996,2 53244  53.2151 226.3590 0001482  84.0528 276.0633 15.08836369 78939,6917.891,95.438,540.782,538.731,0.0
53244.0,STARLINK-4125,PAYLOAD,2023-12-23 21:38:47,15.08836249,0.0001475,53.2155,226.0618,84.8745,275.2415,6.1502e-05,6.91e-06,0.0,0 STARLINK-4125,1 53244U 22086C   23357.90193312  .00000691  00000-0  61502-4 0  9998,2 53244  53.2155 226.0618 0001475  84.8745 275.2415 15.08836249 79445,6917.892,95.438,540.777,538.736,0.0
53244.0,STARLINK-4125,PAYLOAD,2023-12-24 00:49:33,15.08841223,0.0001408,53.2156,225.4656,89.0824,271.033,0.00013318,1.832e-05,0.0,0 STARLINK-4125,1 53244U 22086C   23358.03441054  .00001832  00000-0  13318-3 0  9991,2 53244  53.2156 225.4656 0001408  89.0824 271.0330 15.08841223 79462,6917.877,95.437,540.716,538.768,0.0
53244.0,STARLINK-4125,PAYLOAD,2023-12-24 21:29:33,15.08848829,0.0001434,53.2153,221.5996,90.1005,270.0151,0.00010456,1.377e-05,0.0,0 STARLINK-4125,1 53244U 22086C   23358.89552652  .00001377  00000-0  10456-3 0  9996,2 53244  53.2153 221.5996 0001434  90.1005 270.0151 15.08848829 79599,6917.853,95.437,540.71,538.726,0.0
53244.0,STARLINK-4125,PAYLOAD,2023-12-25 00:40:19,15.08852961,0.0001348,53.215,221.0034,105.0323,255.0818,0.00021209,3.09e-05,0.0,0 STARLINK-4125,1 53244U 22086C   23359.02800312  .00003090  00000-0  21209-3 0  9993,2 53244  53.2150 221.0034 0001348 105.0323 255.0818 15.08852961 79110,6917.841,95.437,540.638,538.773,0.0
53244.0,STARLINK-4125,PAYLOAD,2023-12-25 19:44:57,15.08835227,0.0001265,53.2162,217.4298,86.4176,273.6961,0.00016138,2.281e-05,0.0,0 STARLINK-4125,1 53244U 22086C   23359.82289319  .00002281  00000-0  16138-3 0  9995,2 53244  53.2162 217.4298 0001265  86.4176 273.6961 15.08835227 79234,6917.895,95.438,540.635,538.885,0.0
53244.0,STARLINK-4125,PAYLOAD,2023-12-25 21:20:19,15.0885401,0.0001541,53.2166,217.1385,113.762,246.3534,0.00016136,2.282e-05,0.0,0 STARLINK-4125,1 53244U 22086C   23359.88911891  .00002282  00000-0  16136-3 0  9997,2 53244  53.2166 217.1385 0001541 113.7620 246.3534 15.08854010 79747,6917.838,95.437,540.769,538.637,0.0
53244.0,STARLINK-4125,PAYLOAD,2023-12-26 00:31:05,15.08858139,0.0001697,53.2168,216.538,133.4991,226.6142,0.00013716,1.897e-05,0.0,0 STARLINK-4125,1 53244U 22086C   23360.02159460  .00001897  00000-0  13716-3 0  9993,2 53244  53.2168 216.5380 0001697 133.4991 226.6142 15.08858139 79268,6917.825,95.436,540.864,538.516,0.0
53244.0,STARLINK-4125,PAYLOAD,2023-12-26 19:35:44,15.08838174,0.0001939,53.2164,212.9634,130.1608,229.9554,8.5981e-05,1.08e-05,0.0,0 STARLINK-4125,1 53244U 22086C   23360.81648593  .00001080  00000-0  85981-4 0  9998,2 53244  53.2164 212.9634 0001939 130.1608 229.9554 15.08838174 79387,6917.886,95.438,541.092,538.41,0.0
53244.0,STARLINK-4125,PAYLOAD,2023-12-26 21:11:07,15.08837011,0.0001582,53.2175,212.6688,110.0428,250.0735,5.139e-05,5.3e-06,0.0,0 STARLINK-4125,1 53244U 22086C   23360.88272920  .00000530  00000-0  51390-4 0  9998,2 53244  53.2175 212.6688 0001582 110.0428 250.0735 15.08837011 79897,6917.89,95.438,540.849,538.66,0.0
